SatCatId,ObjectName,LaunchYear,OrbitalPeriod,LaunchMass,StatusCode,Inclination,Status,UcsData,OrbitClassEstimated,LaunchSiteCountry,Owner,UseType,Purpose,LaunchVehicleClass,TLE1,TLE2,MeanMotion,Eccentricity,OrbitClass
56216,ELO-3,2023,92.77,10.0,+,97.36,Active,1,LEO,USA,UK,Commercial,Technology Development,Falcon,1 56216U 23054AQ  24131.46412194  .00122028  00000+0  19885-2 0  9993,2 56216  97.3610  31.0378 0001541 141.2430 218.8934 15.52190298 60380,15.52190298,0.0001541,LEO
56217,KEPLER-20,2023,94.16,15.0,+,97.37,Active,1,LEO,USA,Canada,Commercial,Communications,Falcon,1 56217U 23054AR  24131.43816050  .00019540  00000+0  68989-3 0  9994,2 56217  97.3745  27.6130 0007935 308.9068  51.1464 15.29233452 60233,15.29233452,0.0007935,LEO
56218,KEPLER-21,2023,94.17,15.0,+,97.37,Active,1,LEO,USA,Canada,Commercial,Communications,Falcon,1 56218U 23054AS  24131.26425407  .00016032  00000+0  56808-3 0  9998,2 56218  97.3654  26.7134 0006080 305.1477  54.9193 15.29170179 60180,15.29170179,0.000608,LEO
56219,LLITED B,2023,92.83,2.0,+,97.36,Active,1,LEO,USA,USA,Commercial,Earth Observation,Falcon,1 56219U 23054AT  24131.46103142  .00119066  00000+0  20075-2 0  9997,2 56219  97.3626  31.1553 0002587 250.1896 109.9077 15.51241654 60484,15.51241654,0.0002587,LEO
56220,LLITED A,2023,92.87,2.0,+,97.36,Active,1,LEO,USA,USA,Commercial,Earth Observation,Falcon,1 56220U 23054AU  24131.55795085  .00094171  00000+0  16331-2 0  9991,2 56220  97.3619  31.1689 0002252 250.4024 109.6984 15.50541168 60490,15.50541168,0.0002252,LEO
56221,IRIS-C,2023,93.3,3.0,+,97.37,Active,1,LEO,USA,Taiwan,Government,Space Science,Falcon,1 56221U 23054AV  24131.45268361  .00071724  00000+0  15964-2 0  9993,2 56221  97.3660  29.9024 0004464 279.0872  80.9870 15.43367372 60399,15.43367372,0.0004464,LEO
56222,DISCO-1,2023,93.7,1.0,+,97.36,Active,1,LEO,USA,Denmark,Civil,Space Science,Falcon,1 56222U 23054AW  24131.22355692  .00037900  00000+0  10492-2 0  9992,2 56222  97.3649  28.4673 0007007 298.6739  61.3801 15.36867357 60281,15.36867357,0.0007007,LEO
56223,VIREO,2023,92.72,95.0,+,97.36,Active,1,LEO,USA,Hungary,Commercial,Technology Development,Falcon,1 56223U 23054AX  24131.57016419  .00128455  00000+0  20280-2 0  9994,2 56223  97.3619  31.7143 0000702 217.3962 142.7242 15.53050826 60545,15.53050826,7.02e-05,LEO
56224,REVELA,2023,93.57,-1.0,+,97.37,Active,0,LEO,USA,Italy,Unknown,Unknown,Unknown,1 56224U 23054AY  24131.22649517  .00039659  00000+0  10287-2 0  9991,2 56224  97.3667  29.2908 0003038 288.4388  71.6527 15.38891454 60332,15.38891454,0.0003038,LEO
56225,AAC-HSI-SAT1,2023,95.62,-1.0,+,97.47,Active,0,LEO,USA,UK,Unknown,Unknown,Unknown,1 56225U 23054AZ  24131.57278109  .00005988  00000+0  41442-3 0  9991,2 56225  97.4700  21.3067 0009647 243.0056 117.0187 15.06005641 59540,15.06005641,0.0009647,LEO
56226,OUTPOST MISSION 1,2023,94.66,-1.0,+,97.54,Active,0,LEO,USA,USA,Unknown,Unknown,Unknown,1 56226U 23084BK  24131.31216277  .00016978  00000+0  75974-3 0  9993,2 56226  97.5372 250.4781 0010065 139.8906 220.3074 15.21312299 50403,15.21312299,0.0010065,LEO
56227,SKYKRAFT-3B,2023,94.09,-1.0,+,97.53,Active,0,LEO,USA,Australia,Unknown,Unknown,Unknown,1 56227U 23084BL  24131.54922349  .00050341  00000+0  17002-2 0  9992,2 56227  97.5343 252.1441 0008738 139.2863 220.9032 15.30464527 50530,15.30464527,0.0008738,LEO
56228,SKYKRAFT-3C,2023,94.34,-1.0,+,97.54,Active,0,LEO,USA,Australia,Unknown,Unknown,Unknown,1 56228U 23084BM  24131.61675694  .00037453  00000+0  14352-2 0  9993,2 56228  97.5360 251.4722 0009711 138.4155 221.7823 15.26381643 50495,15.26381643,0.0009711,LEO
56232,FENGYUN 3G,2023,92.74,-1.0,+,50.0,Active,0,LEO,PRC,China,Unknown,Unknown,Unknown,1 56232U 23055A   24131.59893532  .00045674  00000+0  72477-3 0  9993,2 56232  49.9972 344.3424 0010056 237.1233 122.8767 15.52804624 60698,15.52804624,0.0010056,LEO
56287,STARLINK-30107,2023,95.84,750.0,+,43.0,Active,1,LEO,USA,USA,Commercial,Communications,Falcon,1 56287U 23056B   24131.59880854  .00008621  00000+0  65200-3 0  9994,2 56287  43.0041 240.6653 0001089 289.1028  70.9696 15.02561382 59572,15.02561382,0.0001089,LEO
56288,STARLINK-30106,2023,95.84,750.0,+,43.0,Active,1,LEO,USA,USA,Commercial,Communications,Falcon,1 56288U 23056C   24131.56551774  .00011820  00000+0  88851-3 0  9990,2 56288  43.0024 240.4348 0001863 280.0675  79.9957 15.02539686 59527,15.02539686,0.0001863,LEO
56289,STARLINK-30095,2023,95.84,750.0,+,43.0,Active,1,LEO,USA,USA,Commercial,Communications,Falcon,1 56289U 23056D   24131.59597317  .00021562  00000+0  16047-2 0  9998,2 56289  42.9992 214.5038 0000554 296.3816  63.6969 15.02573627 59820,15.02573627,5.54e-05,LEO
56290,STARLINK-30103,2023,95.84,750.0,+,43.0,Active,1,LEO,USA,USA,Commercial,Communications,Falcon,1 56290U 23056E   24131.42923038  .00010174  00000+0  76693-3 0  9996,2 56290  43.0036 241.1321 0001676 260.0656  99.9997 15.02546445 59506,15.02546445,0.0001676,LEO
56291,STARLINK-30113,2023,95.84,750.0,+,43.0,Active,1,LEO,USA,USA,Commercial,Communications,Falcon,1 56291U 23056F   24131.36941119  .00007226  00000+0  54924-3 0  9997,2 56291  42.9993 241.5333 0002000 276.8739  83.1876 15.02549492 59497,15.02549492,0.0002,LEO
56292,STARLINK-30098,2023,95.84,750.0,+,43.01,Active,1,LEO,USA,USA,Commercial,Communications,Falcon,1 56292U 23056G   24131.42589781  .00005464  00000+0  41922-3 0  9994,2 56292  43.0057 241.1008 0002009 280.0128  80.0487 15.02541273 59509,15.02541273,0.0002009,LEO
56293,STARLINK-30090,2023,95.84,750.0,+,43.0,Active,1,LEO,USA,USA,Commercial,Communications,Falcon,1 56293U 23056H   24131.35288131  .00008382  00000+0  63483-3 0  9990,2 56293  43.0027 242.2451 0001579 267.1398  92.9263 15.02535209 59480,15.02535209,0.0001579,LEO
56294,STARLINK-30049,2023,95.84,750.0,+,43.0,Active,1,LEO,USA,USA,Commercial,Communications,Falcon,1 56294U 23056J   24131.61545779  .00041021  00000+0  30301-2 0  9993,2 56294  43.0019 240.7194 0002043 272.2446  87.8162 15.02583993 59526,15.02583993,0.0002043,LEO
56295,STARLINK-30083,2023,95.84,750.0,+,43.0,Active,1,LEO,USA,USA,Commercial,Communications,Falcon,1 56295U 23056K   24131.60929814  .00022758  00000+0  16940-2 0  9998,2 56295  43.0016 214.5892 0001630 274.7675  85.2981 15.02543368 59826,15.02543368,0.000163,LEO
56296,STARLINK-30089,2023,95.84,750.0,+,43.0,Active,1,LEO,USA,USA,Commercial,Communications,Falcon,1 56296U 23056L   24131.47659007 -.00002974  00000+0 -20525-3 0  9993,2 56296  42.9994 202.2726 0001596 264.8212  95.2448 15.02527490 59959,15.0252749,0.0001596,LEO
56297,STARLINK-30086,2023,95.84,750.0,+,43.0,Active,1,LEO,USA,USA,Commercial,Communications,Falcon,1 56297U 23056M   24131.59547499  .00003553  00000+0  27791-3 0  9992,2 56297  43.0033 240.5759 0001474 266.7863  93.2811 15.02545286 59523,15.02545286,0.0001474,LEO
56298,STARLINK-30109,2023,95.84,750.0,+,43.0,Active,1,LEO,USA,USA,Commercial,Communications,Falcon,1 56298U 23056N   24131.60212853  .00005318  00000+0  40828-3 0  9995,2 56298  43.0035 240.6294 0001590 272.0546  88.0115 15.02552111 59588,15.02552111,0.000159,LEO
56299,STARLINK-30108,2023,95.84,750.0,+,43.0,Active,1,LEO,USA,USA,Commercial,Communications,Falcon,1 56299U 23056P   24131.56921690  .00024525  00000+0  18245-2 0  9995,2 56299  43.0016 228.2443 0001504 268.8120  91.2550 15.02530760 59723,15.0253076,0.0001504,LEO
56300,STARLINK-30104,2023,95.84,750.0,+,43.0,Active,1,LEO,USA,USA,Commercial,Communications,Falcon,1 56300U 23056Q   24131.35609682  .00002114  00000+0  17152-3 0  9996,2 56300  43.0008 241.4428 0001601 291.9735  68.0937 15.02537336 59552,15.02537336,0.0001601,LEO
56301,STARLINK-30101,2023,95.84,750.0,+,43.0,Active,1,LEO,USA,USA,Commercial,Communications,Falcon,1 56301U 23056R   24131.58549287  .00001828  00000+0  15032-3 0  9992,2 56301  43.0011 240.5615 0001800 267.9294  92.1342 15.02539324 58937,15.02539324,0.00018,LEO
56302,STARLINK-30111,2023,95.84,750.0,+,43.0,Active,1,LEO,USA,USA,Commercial,Communications,Falcon,1 56302U 23056S   24131.57882533  .00021922  00000+0  16323-2 0  9996,2 56302  43.0023 240.4515 0001626 276.3801  83.6856 15.02547543 59582,15.02547543,0.0001626,LEO
56303,STARLINK-30097,2023,93.09,750.0,P,43.0,Active,1,LEO,USA,USA,Commercial,Communications,Falcon,1 56303U 23056T   24131.58334491  .00176056  00000+0  32786-2 0  9993,2 56303  42.9953 183.9491 0032481  44.7698  79.9166 15.46914529  5955,15.46914529,0.0032481,LEO
56304,STARLINK-30099,2023,95.84,750.0,+,43.0,Active,1,LEO,USA,USA,Commercial,Communications,Falcon,1 56304U 23056U   24131.37606360  .00002401  00000+0  19275-3 0  9999,2 56304  43.0048 241.4985 0001324 273.0937  86.9754 15.02541277 59550,15.02541277,0.0001324,LEO
56305,STARLINK-30094,2023,95.84,750.0,+,43.0,Active,1,LEO,USA,USA,Commercial,Communications,Falcon,1 56305U 23056V   24131.57216064  .00004945  00000+0  38087-3 0  9997,2 56305  43.0019 240.3789 0001903 264.4426  95.6199 15.02539952 59589,15.02539952,0.0001903,LEO
56306,STARLINK-30112,2023,95.84,750.0,+,43.0,Active,1,LEO,USA,USA,Commercial,Communications,Falcon,1 56306U 23056W   24131.58215495  .00004783  00000+0  36886-3 0  9991,2 56306  43.0020 240.4745 0001866 272.7262  87.3366 15.02542442 58933,15.02542442,0.0001866,LEO
56308,POEM-2,2023,96.63,-1.0,+,9.89,Active,0,LEO,India,India,Unknown,Unknown,Unknown,1 56308U 23057A   24131.40822727  .00004163  00000+0  34943-3 0  9991,2 56308   9.8892  64.1178 0023190 217.3655 142.4942 14.90147974 57331,14.90147974,0.002319,LEO
56309,LUMELITE-4,2023,95.95,-1.0,+,10.0,Active,0,LEO,India,Singapore,Unknown,Unknown,Unknown,1 56309U 23057B   24131.31541201  .00013695  00000+0  99067-3 0  9995,2 56309   9.9952  29.2719 0007090  63.5011 296.5930 15.00811973 57642,15.00811973,0.000709,LEO
56310,TELEOS-2,2023,96.23,-1.0,+,9.99,Active,0,LEO,India,Singapore,Unknown,Unknown,PSLV,1 56310U 23057C   24131.33342759  .00014690  00000+0  11997-2 0  9997,2 56310   9.9903  35.0839 0000973 263.6358  96.3745 14.96414555 57591,14.96414555,9.73e-05,LEO
